start=new Date('2021-10-14T00:00:00.000Z').valueOf();
sats=[{"REF_FRAME":"TEME","APOAPSIS":"548.193","MEAN_MOTION_DDOT":"0.0000000000000","RA_OF_ASC_NODE":"164.0146","OBJECT_TYPE":"PAYLOAD","MEAN_MOTION_DOT":"0.00004989","BSTAR":"0.00035361000000","EPOCH":"2021-10-13T22:53:02.103648","MEAN_MOTION":"15.06399589","LAUNCH_DATE":"2020-03-18","TLE_LINE1":"1 45384U 20019AA  21286.95349657  .00004989  00000-0  35361-3 0  9994","MEAN_ANOMALY":"249.9361","MEAN_ELEMENT_THEORY":"SGP4","SEMIMAJOR_AXIS":"6925.350","ARG_OF_PERICENTER":"110.1780","CENTER_NAME":"EARTH","ELEMENT_SET_NO":"999","DECAY_DATE":null,"OBJECT_ID":"2020-019AA","RCS_SIZE":"LARGE","CLASSIFICATION_TYPE":"U","NORAD_CAT_ID":"45384","COUNTRY_CODE":"US","FILE":"3161149","REV_AT_EPOCH":"8768","OBJECT_NAME":"STARLINK-1267","TIME_SYSTEM":"UTC","PERIOD":"95.592","PERIAPSIS":"546.237","ECCENTRICITY":"0.00014120","INCLINATION":"53.0542","EPHEMERIS_TYPE":"0","TLE_LINE2":"2 45384  53.0542 164.0146 0001412 110.1780 249.9361 15.06399589 87681","SITE":"AFETR","GP_ID":"187100225"},{"MEAN_MOTION":"15.06396863","TLE_LINE1":"1 45386U 20019AC  21286.89084814  .00000097  00000-0  25379-4 0  9995","MEAN_ANOMALY":"278.0311","LAUNCH_DATE":"2020-03-18","MEAN_MOTION_DDOT":"0.0000000000000","OBJECT_TYPE":"PAYLOAD","RA_OF_ASC_NODE":"164.3173","REF_FRAME":"TEME","APOAPSIS":"548.227","EPOCH":"2021-10-13T21:22:49.279296","MEAN_MOTION_DOT":"0.00000097","BSTAR":"0.00002537900000","OBJECT_ID":"2020-019AC","DECAY_DATE":null,"MEAN_ELEMENT_THEORY":"SGP4","SEMIMAJOR_AXIS":"6925.358","CENTER_NAME":"EARTH","ARG_OF_PERICENTER":"82.0843","ELEMENT_SET_NO":"999","TIME_SYSTEM":"UTC","OBJECT_NAME":"STARLINK-1272","REV_AT_EPOCH":"8767","PERIOD":"95.592","ECCENTRICITY":"0.00014500","PERIAPSIS":"546.219","RCS_SIZE":"LARGE","CLASSIFICATION_TYPE":"U","COUNTRY_CODE":"US","FILE":"3161149","NORAD_CAT_ID":"45386","SITE":"AFETR","TLE_LINE2":"2 45386  53.0539 164.3173 0001450  82.0843 278.0311 15.06396863 87670","GP_ID":"187098477","EPHEMERIS_TYPE":"0","INCLINATION":"53.0539"},{"TLE_LINE1":"1 45387U 20019AD  21286.91295397 -.00003545  00000-0 -21918-3 0  9996","MEAN_ANOMALY":"292.3417","LAUNCH_DATE":"2020-03-18","MEAN_MOTION":"15.06406582","EPOCH":"2021-10-13T21:54:39.223008","MEAN_MOTION_DOT":"-0.00003545","BSTAR":"-0.00021918000000","MEAN_MOTION_DDOT":"0.0000000000000","RA_OF_ASC_NODE":"164.2189","OBJECT_TYPE":"PAYLOAD","REF_FRAME":"TEME","APOAPSIS":"548.432","OBJECT_ID":"2020-019AD","DECAY_DATE":null,"ELEMENT_SET_NO":"999","MEAN_ELEMENT_THEORY":"SGP4","ARG_OF_PERICENTER":"67.7761","SEMIMAJOR_AXIS":"6925.328","CENTER_NAME":"EARTH","PERIOD":"95.592","PERIAPSIS":"545.954","ECCENTRICITY":"0.00017890","OBJECT_NAME":"STARLINK-1274","TIME_SYSTEM":"UTC","REV_AT_EPOCH":"8767","COUNTRY_CODE":"US","FILE":"3161149","NORAD_CAT_ID":"45387","RCS_SIZE":"LARGE","CLASSIFICATION_TYPE":"U","GP_ID":"187098727","SITE":"AFETR","TLE_LINE2":"2 45387  53.0533 164.2189 0001789  67.7761 292.3417 15.06406582 87671","EPHEMERIS_TYPE":"0","INCLINATION":"53.0533"},{"OBJECT_NAME":"STARLINK-1280","TIME_SYSTEM":"UTC","REV_AT_EPOCH":"8739","PERIAPSIS":"545.998","ECCENTRICITY":"0.00017530","PERIOD":"95.592","CLASSIFICATION_TYPE":"U","RCS_SIZE":"LARGE","FILE":"3161149","COUNTRY_CODE":"US","NORAD_CAT_ID":"45388","SITE":"AFETR","TLE_LINE2":"2 45388  53.0534 184.0521 0001753  74.8771 285.2412 15.06400439 87394","GP_ID":"187099479","EPHEMERIS_TYPE":"0","INCLINATION":"53.0534","MEAN_MOTION":"15.06400439","MEAN_ANOMALY":"285.2412","TLE_LINE1":"1 45388U 20019AE  21286.94797468  .00000675  00000-0  64203-4 0  9990","LAUNCH_DATE":"2020-03-18","OBJECT_TYPE":"PAYLOAD","RA_OF_ASC_NODE":"184.0521","MEAN_MOTION_DDOT":"0.0000000000000","APOAPSIS":"548.426","REF_FRAME":"TEME","EPOCH":"2021-10-13T22:45:05.012352","BSTAR":"0.00006420300000","MEAN_MOTION_DOT":"0.00000675","OBJECT_ID":"2020-019AE","DECAY_DATE":null,"SEMIMAJOR_AXIS":"6925.347","ARG_OF_PERICENTER":"74.8771","CENTER_NAME":"EARTH","MEAN_ELEMENT_THEORY":"SGP4","ELEMENT_SET_NO":"999"},{"MEAN_ANOMALY":"284.1139","TLE_LINE1":"1 45389U 20019AF  21286.92771003  .00000172  00000-0  30474-4 0  9991","LAUNCH_DATE":"2020-03-18","MEAN_MOTION":"15.06394620","EPOCH":"2021-10-13T22:15:54.146592","BSTAR":"0.00003047400000","MEAN_MOTION_DOT":"0.00000172","RA_OF_ASC_NODE":"164.1362","OBJECT_TYPE":"PAYLOAD","MEAN_MOTION_DDOT":"0.0000000000000","APOAPSIS":"548.470","REF_FRAME":"TEME","OBJECT_ID":"2020-019AF","DECAY_DATE":null,"ELEMENT_SET_NO":"999","SEMIMAJOR_AXIS":"6925.365","ARG_OF_PERICENTER":"76.0049","CENTER_NAME":"EARTH","MEAN_ELEMENT_THEORY":"SGP4","ECCENTRICITY":"0.00017900","PERIAPSIS":"545.990","PERIOD":"95.592","OBJECT_NAME":"STARLINK-1283","TIME_SYSTEM":"UTC","REV_AT_EPOCH":"8768","FILE":"3161149","COUNTRY_CODE":"US","NORAD_CAT_ID":"45389","CLASSIFICATION_TYPE":"U","RCS_SIZE":"LARGE","GP_ID":"187099726","SITE":"AFETR","TLE_LINE2":"2 45389  53.0532 164.1362 0001790  76.0049 284.1139 15.06394620 87688","EPHEMERIS_TYPE":"0","INCLINATION":"53.0532"},{"GP_ID":"187098977","TLE_LINE2":"2 45390  53.0539 164.2668 0001830  67.4999 292.6184 15.06400944 87670","SITE":"AFETR","INCLINATION":"53.0539","EPHEMERIS_TYPE":"0","ECCENTRICITY":"0.00018300","PERIAPSIS":"545.943","PERIOD":"95.592","REV_AT_EPOCH":"8767","OBJECT_NAME":"STARLINK-1284","TIME_SYSTEM":"UTC","NORAD_CAT_ID":"45390","FILE":"3161149","COUNTRY_CODE":"US","CLASSIFICATION_TYPE":"U","RCS_SIZE":"LARGE","DECAY_DATE":null,"OBJECT_ID":"2020-019AG","ELEMENT_SET_NO":"999","ARG_OF_PERICENTER":"67.4999","SEMIMAJOR_AXIS":"6925.346","CENTER_NAME":"EARTH","MEAN_ELEMENT_THEORY":"SGP4","LAUNCH_DATE":"2020-03-18","MEAN_ANOMALY":"292.6184","TLE_LINE1":"1 45390U 20019AG  21286.90191060 -.00000961  00000-0 -45636-4 0  9994","MEAN_MOTION":"15.06400944","BSTAR":"-0.00004563600000","MEAN_MOTION_DOT":"-0.00000961","EPOCH":"2021-10-13T21:38:45.075840","APOAPSIS":"548.478","REF_FRAME":"TEME","OBJECT_TYPE":"PAYLOAD","RA_OF_ASC_NODE":"164.2668","MEAN_MOTION_DDOT":"0.0000000000000"},{"EPHEMERIS_TYPE":"0","INCLINATION":"53.0546","SITE":"AFETR","TLE_LINE2":"2 45391  53.0546 164.1955 0001849  82.9575 277.1625 15.06400384 87406","GP_ID":"187099227","RCS_SIZE":"LARGE","CLASSIFICATION_TYPE":"U","COUNTRY_CODE":"US","FILE":"3161149","NORAD_CAT_ID":"45391","OBJECT_NAME":"STARLINK-1289","TIME_SYSTEM":"UTC","REV_AT_EPOCH":"8740","PERIOD":"95.592","PERIAPSIS":"545.932","ECCENTRICITY":"0.00018490","MEAN_ELEMENT_THEORY":"SGP4","ARG_OF_PERICENTER":"82.9575","SEMIMAJOR_AXIS":"6925.347","CENTER_NAME":"EARTH","ELEMENT_SET_NO":"999","OBJECT_ID":"2020-019AH","DECAY_DATE":null,"MEAN_MOTION_DDOT":"0.0000000000000","OBJECT_TYPE":"PAYLOAD","RA_OF_ASC_NODE":"164.1955","REF_FRAME":"TEME","APOAPSIS":"548.493","EPOCH":"2021-10-13T21:59:58.960032","MEAN_MOTION_DOT":"-0.00000355","BSTAR":"-0.00000489050000","MEAN_MOTION":"15.06400384","MEAN_ANOMALY":"277.1625","TLE_LINE1":"1 45391U 20019AH  21286.91665463 -.00000355  00000-0 -48905-5 0  9999","LAUNCH_DATE":"2020-03-18"},{"MEAN_ANOMALY":"305.9145","TLE_LINE1":"1 45392U 20019AJ  21286.89563267  .00005373  00000-0  36489-3 0  9991","LAUNCH_DATE":"2020-03-18","MEAN_MOTION":"15.07859524","EPOCH":"2021-10-13T21:29:42.662688","BSTAR":"0.00036489000000","MEAN_MOTION_DOT":"0.00005373","OBJECT_TYPE":"PAYLOAD","RA_OF_ASC_NODE":"161.2499","MEAN_MOTION_DDOT":"0.0000000000000","APOAPSIS":"544.229","REF_FRAME":"TEME","OBJECT_ID":"2020-019AJ","DECAY_DATE":null,"ELEMENT_SET_NO":"999","CENTER_NAME":"EARTH","SEMIMAJOR_AXIS":"6920.879","ARG_OF_PERICENTER":"54.2043","MEAN_ELEMENT_THEORY":"SGP4","ECCENTRICITY":"0.00021460","PERIAPSIS":"541.259","PERIOD":"95.500","TIME_SYSTEM":"UTC","OBJECT_NAME":"STARLINK-1290","REV_AT_EPOCH":"8741","FILE":"3161149","COUNTRY_CODE":"US","NORAD_CAT_ID":"45392","CLASSIFICATION_TYPE":"U","RCS_SIZE":"LARGE","GP_ID":"187099979","SITE":"AFETR","TLE_LINE2":"2 45392  52.9931 161.2499 0002146  54.2043 305.9145 15.07859524 87410","EPHEMERIS_TYPE":"0","INCLINATION":"52.9931"},{"FILE":"3161149","COUNTRY_CODE":"US","NORAD_CAT_ID":"45393","CLASSIFICATION_TYPE":"U","RCS_SIZE":"LARGE","ECCENTRICITY":"0.00021360","PERIAPSIS":"545.740","PERIOD":"95.592","OBJECT_NAME":"STARLINK-1291","TIME_SYSTEM":"UTC","REV_AT_EPOCH":"8744","EPHEMERIS_TYPE":"0","INCLINATION":"53.0522","GP_ID":"187100226","SITE":"AFETR","TLE_LINE2":"2 45393  53.0522 164.0687 0002136  89.6191 270.5042 15.06398287 87443","EPOCH":"2021-10-13T22:42:25.980192","BSTAR":"0.00014039000000","MEAN_MOTION_DOT":"0.00001810","RA_OF_ASC_NODE":"164.0687","OBJECT_TYPE":"PAYLOAD","MEAN_MOTION_DDOT":"0.0000000000000","APOAPSIS":"548.698","REF_FRAME":"TEME","TLE_LINE1":"1 45393U 20019AK  21286.94613403  .00001810  00000-0  14039-3 0  9995","MEAN_ANOMALY":"270.5042","LAUNCH_DATE":"2020-03-18","MEAN_MOTION":"15.06398287","ELEMENT_SET_NO":"999","CENTER_NAME":"EARTH","SEMIMAJOR_AXIS":"6925.354","ARG_OF_PERICENTER":"89.6191","MEAN_ELEMENT_THEORY":"SGP4","OBJECT_ID":"2020-019AK","DECAY_DATE":null},{"EPHEMERIS_TYPE":"0","INCLINATION":"53.0540","GP_ID":"187098478","SITE":"AFETR","TLE_LINE2":"2 45394  53.0540 164.2330 0001914  66.7565 293.3626 15.06392313 87417","FILE":"3161149","COUNTRY_CODE":"US","NORAD_CAT_ID":"45394","CLASSIFICATION_TYPE":"U","RCS_SIZE":"LARGE","PERIAPSIS":"545.912","ECCENTRICITY":"0.00019140","PERIOD":"95.593","TIME_SYSTEM":"UTC","OBJECT_NAME":"STARLINK-1292","REV_AT_EPOCH":"8741","ELEMENT_SET_NO":"999","SEMIMAJOR_AXIS":"6925.372","CENTER_NAME":"EARTH","ARG_OF_PERICENTER":"66.7565","MEAN_ELEMENT_THEORY":"SGP4","OBJECT_ID":"2020-019AL","DECAY_DATE":null,"EPOCH":"2021-10-13T21:49:22.156608","BSTAR":"0.00003268000000","MEAN_MOTION_DOT":"0.00000205","RA_OF_ASC_NODE":"164.2330","OBJECT_TYPE":"PAYLOAD","MEAN_MOTION_DDOT":"0.0000000000000","APOAPSIS":"548.563","REF_FRAME":"TEME","MEAN_ANOMALY":"293.3626","TLE_LINE1":"1 45394U 20019AL  21286.90928422  .00000205  00000-0  32680-4 0  9992","LAUNCH_DATE":"2020-03-18","MEAN_MOTION":"15.06392313"}];
